satname,norad_id,inclination_deg,eccentricity,mean_motion_rev_per_day,perigee_km,apogee_km,l1,l2
STARLINK-1008,44714,53.1502,0.0003543,15.5294187,405.73758713970346,410.5463444148527,1 44714U 19074B   26189.89097947  .00048177  00000+0  76353-3 0  9993,2 44714  53.1502 324.5994 0003543 295.3766  64.6877 15.52941870367586
STARLINK-1012,44718,53.1548,0.0003958,15.53283648,404.46083122726304,409.83206160344525,1 44718U 19074F   26189.94677842  .00051144  00000+0  79984-3 0  9992,2 44718  53.1548 324.5573 0003958 297.2493  62.8114 15.53283648367588
STARLINK-1017,44723,53.0483,0.0001703,15.33902002,463.01854842252396,465.3490428855239,1 44723U 19074L   26189.65455405  .00042265  00000+0  12748-2 0  9993,2 44723  53.0483 329.0511 0001703 110.7214 249.3970 15.33902002367479
STARLINK-1020,44725,53.1557,0.0003326,15.59144582,387.8804110534511,392.38266328437476,1 44725U 19074N   26189.73097312  .00087151  00000+0  10882-2 0  9993,2 44725  53.1557 348.4248 0003326 250.5704 109.4950 15.59144582367211
STARLINK-1036,44741,53.043,0.0002339,15.76663939,338.32906542854926,341.4717633309965,1 44741U 19074AE  26189.60635258  .00064514  00000+0  39623-3 0  9997,2 44741  53.0430 314.0745 0002339 357.7739   2.3270 15.76663939367677
STARLINK-1039,44744,53.0587,0.0002515,15.30864115,471.50973910854555,474.9559781474354,1 44744U 19074AH  26189.80865000  .00039466  00000+0  13103-2 0  9994,2 44744  53.0587  14.4036 0002515 153.5252 206.5877 15.30864115366854
STARLINK-1042,44747,53.0405,8.55e-05,15.55641203,399.7098161758022,400.86892708535015,1 44747U 19074AL  26189.52722674  .00018377  00000+0  26929-3 0  9994,2 44747  53.0405 232.4141 0000855  61.9577 298.1520 15.55641203368843
STARLINK-1043,44748,53.0503,0.0001905,15.66750892,366.92273092986306,369.49308834043313,1 44748U 19074AM  26189.62516036  .00053911  00000+0  50422-3 0  9997,2 44748  53.0503 326.2814 0001905  14.0579 346.0489 15.66750892367517
STARLINK-1046,44751,53.0466,0.0003819,15.59424293,386.73767925621087,391.9066645717203,1 44751U 19074AQ  26189.73404617  .00091099  00000+0  11245-2 0  9992,2 44751  53.0466 348.9191 0003819 200.9909 159.0946 15.59424293367208
STARLINK-1047,44752,53.0677,0.0001248,15.35090976,459.7968036576458,461.5037649638107,1 44752U 19074AR  26189.62354087  .00014806  00000+0  43878-3 0  9995,2 44752  53.0677 299.9292 0001248 201.6993 158.3956 15.35090976367906
STARLINK-1048,44753,53.0428,0.0002323,15.70582872,355.66545600449354,358.79470755068724,1 44753U 19074AS  26188.34188489  .00046785  00000+0  37496-3 0  9995,2 44753  53.0428 303.2564 0002323 129.3226 230.7997 15.70582872367711
STARLINK-1063,44768,53.1545,0.000187,15.53039657,406.58811693510233,409.1260787276915,1 44768U 19074BH  26189.96823417  .00055886  00000+0  88069-3 0  9991,2 44768  53.1545   5.2655 0001870 251.6723 108.4085 15.53039657367038
STARLINK-1067,44771,53.0413,0.0005007,15.82998123,318.6127325646621,325.3222171858015,1 44771U 19074BL  26189.65172439  .00103679  00000+0  47302-3 0  9991,2 44771  53.0413 326.1441 0005007 316.7454  43.3174 15.82998123367516
STARLINK-1068,44772,53.0393,0.0004693,15.80715856,325.26769618098024,331.56246596427536,1 44772U 19074BM  26189.88533652  .00082654  00000+0  42104-3 0  9999,2 44772  53.0393 299.0747 0004693 328.8729  31.2014 15.80715856367900
STARLINK-1114,44927,53.0391,0.0001606,15.73022033,349.1850319008654,351.34619482027665,1 44927U 20001P   26189.94448606  .00051682  00000+0  37314-3 0  9998,2 44927  53.0391  97.7907 0001606 168.7737 191.3317 15.73022033359031
STARLINK-1123,44930,53.1393,0.0007082,15.63013685,374.1720470465252,383.74279558487706,1 44930U 20001S   26189.96530592  .00063977  00000+0  69133-3 0  9994,2 44930  53.1393 127.0228 0007082  60.7042 299.4679 15.63013685358644
STARLINK-1094,44941,53.1491,0.0006528,15.5846524,387.6786638241192,396.5178829970837,1 44941U 20001AD  26189.94605531  .00059777  00000+0  76997-3 0  9999,2 44941  53.1491 103.1368 0006528  85.3965 274.7793 15.58465240358988
STARLINK-1122,44949,53.1511,0.0006264,15.58303823,388.3246272741562,396.806963736366,1 44949U 20001AM  26190.00002315  .00027927  00000+0  36686-3 0  9990,2 44949  53.1511 103.4492 0006264  78.2195 183.5301 15.58303823  5959
STARLINK-1080,44961,53.044,0.0001962,15.70993161,354.73608540369605,357.3785832604881,1 44961U 20001AZ  26189.88897563  .00045503  00000+0  35869-3 0  9997,2 44961  53.0440  58.4590 0001962 142.7318 217.3835 15.70993161359588
STARLINK-1090,44968,53.1459,0.0005199,15.54462839,400.18865511871627,407.24042434973126,1 44968U 20001BG  26189.95546010  .00058799  00000+0  87892-3 0  9994,2 44968  53.1459  92.2645 0005199  89.5790 270.5817 15.54462839359138
STARLINK-1132,45044,53.1486,0.0002338,15.59691314,386.9677004941277,390.13180321929576,1 45044U 20006A   26189.82288544  .00039156  00000+0  48526-3 0  9993,2 45044  53.1486  32.7330 0002338 167.6700 192.4371 15.59691314355731
STARLINK-1131,45047,53.1533,0.0004162,15.56341498,395.4355268550844,401.0761962730512,1 45047U 20006D   26189.90608474  .00021700  00000+0  30853-3 0  9993,2 45047  53.1533  65.9641 0004162 115.5243 244.6200 15.56341498355273
STARLINK-1134,45048,53.0229,0.000617,15.62931738,375.0243364132575,383.36288238525594,1 45048U 20006E   26189.81802254  .00032025  00000+0  35151-3 0  9994,2 45048  53.0229  14.2733 0006170 190.0734 170.0157 15.62931738355966
STARLINK-1156,45054,53.1556,0.0004191,15.37835288,449.64912715942137,455.37457702724623,1 45054U 20006L   26189.89532564  .00030739  00000+0  82157-3 0  9991,2 45054  53.1556  75.6356 0004191 105.0394 255.1074 15.37835288355135
STARLINK-1166,45060,53.0432,4.65e-05,15.68581431,362.64475815245805,363.2716800078324,1 45060U 20006S   26189.97236754  .00040145  00000+0  35045-3 0  9995,2 45060  53.0432  46.1208 0000465 126.3606 233.7453 15.68581431355534
STARLINK-1169,45061,53.1535,0.0005174,15.41360245,438.5650242040738,445.6225990479443,1 45061U 20006T   26189.92443783  .00046110  00000+0  10909-2 0  9992,2 45061  53.1535  73.3085 0005174  79.5377 280.6211 15.41360245355173
STARLINK-1171,45062,53.0377,4.86e-05,15.79399561,331.8146707761698,332.466909777384,1 45062U 20006U   26189.78097353  .00079735  00000+0  43180-3 0  9992,2 45062  53.0377   9.8543 0000486   7.9286 352.1743 15.79399561356029
STARLINK-1133,45064,53.1556,0.0004331,15.37657615,450.079437825867,455.9966016279541,1 45064U 20006W   26189.93255220  .00035183  00000+0  94369-3 0  9994,2 45064  53.1556  52.2528 0004331 105.7156 254.4326 15.37657615355472
STARLINK-1167,45071,53.1565,0.0002916,15.40323837,443.16312881059184,447.1424714220184,1 45071U 20006AD  26189.88334940  .00033061  00000+0  81383-3 0  9998,2 45071  53.1565  50.9714 0002916  58.2612 301.8677 15.40323837355485
STARLINK-1168,45072,53.1566,0.0003755,15.38183877,448.91530048398454,454.04434271700757,1 45072U 20006AE  26189.90595686  .00043037  00000+0  11315-2 0  9999,2 45072  53.1566  52.5051 0003755 101.1201 259.0225 15.38183877355469
STARLINK-1172,45074,53.1542,0.0002972,15.41389821,439.9796208404241,444.03351417695194,1 45074U 20006AG  26189.88533694  .00041428  00000+0  98103-3 0  9992,2 45074  53.1542  50.0729 0002972  74.4579 285.6754 15.41389821355496
STARLINK-1153,45080,53.1565,0.0004534,15.40324759,442.0563989210814,448.24375564276215,1 45080U 20006AN  26189.93012052  .00041039  00000+0  10066-2 0  9994,2 45080  53.1565  50.6639 0004534  59.2137 300.9314 15.40324759355492
STARLINK-1151,45081,53.0443,0.0008917,15.99534947,269.7748595508774,281.64132689012695,1 45081U 20006AP  26190.00002315  .00315300  52687-4  61961-3 0  9995,2 45081  53.0443 353.8423 0008917 302.0610  11.0527 15.99534947  6002
STARLINK-1185,45087,53.1574,0.0002912,15.4958499,415.96019826022166,419.918233048219,1 45087U 20006AV  26189.82951674  .00050193  00000+0  89592-3 0  9993,2 45087  53.1574  29.3075 0002912 125.6977 234.4303 15.49584990355789
STARLINK-1183,45088,53.1575,0.0003537,15.37543376,450.9600787214422,455.79269128999476,1 45088U 20006AW  26189.89382198  .00040133  00000+0  10784-2 0  9999,2 45088  53.1575  37.2678 0003537 123.9100 236.2241 15.37543376355670
STARLINK-1152,45096,53.0333,0.000303,15.52846476,406.36356463268476,410.4762181088554,1 45096U 20006BE  26189.71399698  .00069138  00000+0  10933-2 0  9994,2 45096  53.0333 349.4178 0003030 242.6955 117.3746 15.52846476356302
STARLINK-1184,45098,53.0511,0.0004604,15.15695336,515.6930052190692,522.0437677789569,1 45098U 20006BG  26189.94450270  .00020057  00000+0  10538-2 0  9993,2 45098  53.0511  55.4522 0004604 122.0748 238.0693 15.15695336355394
STARLINK-1193,45100,53.046,0.0003456,15.71286488,352.8921695891877,357.54626540672143,1 45100U 20006BJ  26189.65545403  .00049024  00000+0  38115-3 0  9995,2 45100  53.0460 357.3657 0003456  57.2103 302.9247 15.71286488356182
STARLINK-1143,45179,53.0276,0.0002752,16.06074903,255.80662438539912,259.45895207684134,1 45179U 20012B   26189.41008569  .00412010  90630-4  54986-3 0  9995,2 45179  53.0276  83.5375 0002752 180.1959 179.9072 16.06074903355016
STARLINK-1202,45183,53.1533,0.0004598,15.37256695,451.08417160267527,457.3672123342094,1 45183U 20012F   26189.32239402  .00032667  00000+0  88863-3 0  9996,2 45183  53.1533 196.7394 0004598   9.4813 350.6277 15.37256695353452
STARLINK-1216,45185,53.1538,0.000436,15.37646798,450.0916506009271,456.04846315452505,1 45185U 20012H   26189.42434870  .00027099  00000+0  73028-3 0  9995,2 45185  53.1538 196.0415 0004360   8.1966 351.9108 15.37646798353418
STARLINK-1225,45187,53.1547,0.0004734,15.37715816,449.6318532404184,456.0994465493386,1 45187U 20012K   26189.74765845  .00040865  00000+0  10915-2 0  9992,2 45187  53.1547 194.9816 0004734  12.0525 348.0592 15.37715816353504
STARLINK-1230,45189,53.1538,0.0004642,15.37600156,450.037092253393,456.37931313957597,1 45189U 20012M   26189.30689070  .00036303  00000+0  97503-3 0  9992,2 45189  53.1538 197.1555 0004642  10.5002 349.6098 15.37600156350664
